STARLINK-37636          
1 69143U 26110V   26155.15039255  .00148875  00000+0  76306-3 0  9999
2 69143  97.2838 351.3319 0001474  89.3603 270.7834 15.80865274  3585
STARLINK-37638          
1 69144U 26110W   26155.14964017  .00189258  00000+0  96453-3 0  9997
2 69144  97.2836 351.3333 0001449  81.7757 278.3676 15.80883716  3587
STARLINK-37657          
1 69145U 26110X   26155.16670139 -.00772286  00000+0 -48988-2 0  9999
2 69145  97.2849 351.3514 0001439  71.2037  26.8255 15.78457670  3613
STARLINK-37639          
1 69146U 26110Y   26155.08483661  .00207523  00000+0  10554-2 0  9996
2 69146  97.2835 351.2689 0001376  80.5210 279.6213 15.80882389  3576
STARLINK-37661          
1 69147U 26110Z   26155.16670139 -.02664050  00000+0 -21076-1 0  9990
2 69147  97.2852 351.3484 0001946  74.8628  18.0120 15.74596007  3611
STARLINK-37395          
1 69148U 26111A   26155.16670139  .00153324  00000+0  76814-3 0  9997
2 69148  53.1586 216.9145 0001249  99.8177 161.8172 15.80830277  3452
STARLINK-37346          
1 69149U 26111B   26155.16670139  .00172139  00000+0  86065-3 0  9992
2 69149  53.1585 216.9021 0001361  96.2724 171.3144 15.80816028  3452
STARLINK-37332          
1 69150U 26111C   26155.16670139  .00117973  00000+0  59394-3 0  9994
2 69150  53.1587 216.8862 0001382  92.2812 183.0660 15.80842505  3457
STARLINK-37297          
1 69151U 26111D   26155.16670139  .00169104  00000+0  84580-3 0  9993
2 69151  53.1587 216.8992 0001345  74.9833 193.8309 15.80816865  3450
STARLINK-37317          
1 69152U 26111E   26155.16670139  .00145613  00000+0  73042-3 0  9994
2 69152  53.1587 216.8761 0001387  85.5721 194.4209 15.80827702  3453
STARLINK-37374          
1 69153U 26111F   26155.16670139  .00115063  00000+0  57991-3 0  9996
2 69153  53.1586 216.8583 0001252  96.6901 191.5500 15.80830063  3455
STARLINK-37235          
1 69154U 26111G   26155.16670139  .00162023  00000+0  81132-3 0  9999
2 69154  53.1588 216.8658 0001278  94.4273 190.1924 15.80813627  3459
STARLINK-37329          
1 69155U 26111H   26155.16670139  .00086209  00000+0  43651-3 0  9995
2 69155  53.1586 216.8811 0001272  99.5976 177.8253 15.80845599  3459
STARLINK-37345          
1 69156U 26111J   26155.16670139  .00134716  00000+0  67705-3 0  9999
2 69156  53.1589 216.8641 0001241  91.4135 194.2517 15.80822379  3455
STARLINK-37353          
1 69157U 26111K   26155.16670139  .00149245  00000+0  74846-3 0  9997
2 69157  53.1588 216.8614 0000962  75.9948 210.9067 15.80821403  3456
STARLINK-37363          
1 69158U 26111L   26155.16670139  .00038309  00000+0  19661-3 0  9990
2 69158  53.1589 216.8370 0000908 109.2072 189.4798 15.80890575  3453
STARLINK-37343          
1 69159U 26111M   26155.16670139  .00192118  00000+0  95856-3 0  9990
2 69159  53.1590 216.8283 0001243  98.5485 204.4435 15.80801006  3457
STARLINK-37328          
1 69160U 26111N   26155.16670139  .00142115  00000+0  71362-3 0  9990
2 69160  53.1589 216.8355 0001435  77.8544 221.5795 15.80816478  3454
STARLINK-37311          
1 69161U 26111P   26155.16670139  .00202628  00000+0  10096-2 0  9993
2 69161  53.1591 216.8225 0001239  98.8168 206.8612 15.80800933  3454
STARLINK-36286          
1 69162U 26111Q   26155.16670139  .00200358  00000+0  99854-3 0  9992
2 69162  53.1591 216.8135 0001106  95.9169 214.0163 15.80801653  3459
STARLINK-37196          
1 69163U 26111R   26155.16670139 -.01252133  00000+0 -78359-2 0  9990
2 69163  53.1592 216.7943 0001235 121.5821 197.7786 15.78958394  3451
STARLINK-36288          
1 69164U 26111S   26155.16670139 -.00962442  00000+0 -53640-2 0  9997
2 69164  53.1592 216.7944 0000837  88.5359 230.4440 15.81197159  3458
STARLINK-37445          
1 69165U 26111T   26155.16670139  .00194787  00000+0  97162-3 0  9993
2 69165  53.1591 216.7901 0001072  98.0741 223.2888 15.80798958  3453
STARLINK-37491          
1 69166U 26111U   26155.16670139 -.02261642  00000+0 -13588-1 0  9991
2 69166  53.1593 216.7770 0001065 105.4981 221.8885 15.80167823  3453
STARLINK-37474          
1 69167U 26111V   26155.16670139 -.00327391  00000+0 -17093-2 0  9990
2 69167  53.1593 216.7573 0000618  91.6218 245.5043 15.80993463  3453
STARLINK-37469          
1 69168U 26111W   26155.16670139  .00149955  00000+0  75189-3 0  9998
2 69168  53.1592 216.7485 0000853  87.0715 254.3579 15.80822785  3457
STARLINK-37515          
1 69169U 26111X   26155.16670139  .00001228  00000+0  97562-5 0  9990
2 69169  53.1592 216.7394 0000638  85.3829 260.3111 15.80870164  3458
STARLINK-37437          
1 69170U 26111Y   26155.16670139  .00117232  00000+0  59050-3 0  9993
2 69170  53.1589 216.7333 0001177  75.1373 273.2949 15.80834633  3452
STARLINK-37392          
1 69171U 26111Z   26155.16670139  .00183727  00000+0  91767-3 0  9997
2 69171  53.1593 216.6854 0001130 103.4727 267.8656 15.80802766  3458
STARLINK-37472          
1 69172U 26111AA  26155.16670139  .00201860  00000+0  10058-2 0  9990
2 69172  53.1594 216.6767 0000841  96.4965 279.1140 15.80801034  3457
