OBJECT_NAME,OBJECT_ID,EPOCH,MEAN_MOTION,ECCENTRICITY,INCLINATION,RA_OF_ASC_NODE,ARG_OF_PERICENTER,MEAN_ANOMALY,EPHEMERIS_TYPE,CLASSIFICATION_TYPE,NORAD_CAT_ID,ELEMENT_SET_NO,REV_AT_EPOCH,BSTAR,MEAN_MOTION_DOT,MEAN_MOTION_DDOT
STARLINK-37636,2026-110V,2026-06-04T03:36:33.916320,15.80865274,.0001474,97.2838,351.3319,89.3603,270.7834,0,U,69143,999,358,.76306E-3,.148875E-2,0
STARLINK-37638,2026-110W,2026-06-04T03:35:28.910688,15.80883716,.0001449,97.2836,351.3333,81.7757,278.3676,0,U,69144,999,358,.96453E-3,.189258E-2,0
STARLINK-37657,2026-110X,2026-06-04T04:00:03.000096,15.78457670,.0001439,97.2849,351.3514,71.2037,26.8255,0,U,69145,999,361,-.48988E-2,-.772286E-2,0
STARLINK-37639,2026-110Y,2026-06-04T02:02:09.883104,15.80882389,.0001376,97.2835,351.2689,80.5210,279.6213,0,U,69146,999,357,.10554E-2,.207523E-2,0
STARLINK-37661,2026-110Z,2026-06-04T04:00:03.000096,15.74596007,.0001946,97.2852,351.3484,74.8628,18.0120,0,U,69147,999,361,-.21076E-1,-.266405E-1,0
STARLINK-37395,2026-111A,2026-06-04T04:00:03.000096,15.80830277,.0001249,53.1586,216.9145,99.8177,161.8172,0,U,69148,999,345,.76814E-3,.153324E-2,0
STARLINK-37346,2026-111B,2026-06-04T04:00:03.000096,15.80816028,.0001361,53.1585,216.9021,96.2724,171.3144,0,U,69149,999,345,.86065E-3,.172139E-2,0
STARLINK-37332,2026-111C,2026-06-04T04:00:03.000096,15.80842505,.0001382,53.1587,216.8862,92.2812,183.0660,0,U,69150,999,345,.59394E-3,.117973E-2,0
STARLINK-37297,2026-111D,2026-06-04T04:00:03.000096,15.80816865,.0001345,53.1587,216.8992,74.9833,193.8309,0,U,69151,999,345,.8458E-3,.169104E-2,0
STARLINK-37317,2026-111E,2026-06-04T04:00:03.000096,15.80827702,.0001387,53.1587,216.8761,85.5721,194.4209,0,U,69152,999,345,.73042E-3,.145613E-2,0
STARLINK-37374,2026-111F,2026-06-04T04:00:03.000096,15.80830063,.0001252,53.1586,216.8583,96.6901,191.5500,0,U,69153,999,345,.57991E-3,.115063E-2,0
STARLINK-37235,2026-111G,2026-06-04T04:00:03.000096,15.80813627,.0001278,53.1588,216.8658,94.4273,190.1924,0,U,69154,999,345,.81132E-3,.162023E-2,0
STARLINK-37329,2026-111H,2026-06-04T04:00:03.000096,15.80845599,.0001272,53.1586,216.8811,99.5976,177.8253,0,U,69155,999,345,.43651E-3,.86209E-3,0
STARLINK-37345,2026-111J,2026-06-04T04:00:03.000096,15.80822379,.0001241,53.1589,216.8641,91.4135,194.2517,0,U,69156,999,345,.67705E-3,.134716E-2,0
STARLINK-37353,2026-111K,2026-06-04T04:00:03.000096,15.80821403,.0000962,53.1588,216.8614,75.9948,210.9067,0,U,69157,999,345,.74846E-3,.149245E-2,0
STARLINK-37363,2026-111L,2026-06-04T04:00:03.000096,15.80890575,.0000908,53.1589,216.8370,109.2072,189.4798,0,U,69158,999,345,.19661E-3,.38309E-3,0
STARLINK-37343,2026-111M,2026-06-04T04:00:03.000096,15.80801006,.0001243,53.1590,216.8283,98.5485,204.4435,0,U,69159,999,345,.95856E-3,.192118E-2,0
STARLINK-37328,2026-111N,2026-06-04T04:00:03.000096,15.80816478,.0001435,53.1589,216.8355,77.8544,221.5795,0,U,69160,999,345,.71362E-3,.142115E-2,0
STARLINK-37311,2026-111P,2026-06-04T04:00:03.000096,15.80800933,.0001239,53.1591,216.8225,98.8168,206.8612,0,U,69161,999,345,.10096E-2,.202628E-2,0
STARLINK-36286,2026-111Q,2026-06-04T04:00:03.000096,15.80801653,.0001106,53.1591,216.8135,95.9169,214.0163,0,U,69162,999,345,.99854E-3,.200358E-2,0
STARLINK-37196,2026-111R,2026-06-04T04:00:03.000096,15.78958394,.0001235,53.1592,216.7943,121.5821,197.7786,0,U,69163,999,345,-.78359E-2,-.1252133E-1,0
STARLINK-36288,2026-111S,2026-06-04T04:00:03.000096,15.81197159,.0000837,53.1592,216.7944,88.5359,230.4440,0,U,69164,999,345,-.5364E-2,-.962442E-2,0
STARLINK-37445,2026-111T,2026-06-04T04:00:03.000096,15.80798958,.0001072,53.1591,216.7901,98.0741,223.2888,0,U,69165,999,345,.97162E-3,.194787E-2,0
STARLINK-37491,2026-111U,2026-06-04T04:00:03.000096,15.80167823,.0001065,53.1593,216.7770,105.4981,221.8885,0,U,69166,999,345,-.13588E-1,-.2261642E-1,0
STARLINK-37474,2026-111V,2026-06-04T04:00:03.000096,15.80993463,.0000618,53.1593,216.7573,91.6218,245.5043,0,U,69167,999,345,-.17093E-2,-.327391E-2,0
STARLINK-37469,2026-111W,2026-06-04T04:00:03.000096,15.80822785,.0000853,53.1592,216.7485,87.0715,254.3579,0,U,69168,999,345,.75189E-3,.149955E-2,0
STARLINK-37515,2026-111X,2026-06-04T04:00:03.000096,15.80870164,.0000638,53.1592,216.7394,85.3829,260.3111,0,U,69169,999,345,.97562E-5,.1228E-4,0
STARLINK-37437,2026-111Y,2026-06-04T04:00:03.000096,15.80834633,.0001177,53.1589,216.7333,75.1373,273.2949,0,U,69170,999,345,.5905E-3,.117232E-2,0
STARLINK-37392,2026-111Z,2026-06-04T04:00:03.000096,15.80802766,.000113,53.1593,216.6854,103.4727,267.8656,0,U,69171,999,345,.91767E-3,.183727E-2,0
STARLINK-37472,2026-111AA,2026-06-04T04:00:03.000096,15.80801034,.0000841,53.1594,216.6767,96.4965,279.1140,0,U,69172,999,345,.10058E-2,.20186E-2,0
